{"type": "FeatureCollection", "features": [{"type": "Feature", "properties": {"norad_id": 50032, "name": "COSMOS 1408 DEB", "group": "cosmos-1408-debris", "lat": 75.8802478006412, "lon": -164.6487439628311, "alt_km": 416.9176283658617, "timestamp": "2025-12-24T07:45:06.470129+00:00", "meta": {"OBJECT_NAME": "COSMOS 1408 DEB", "OBJECT_ID": "1982-092RU", "EPOCH": "2025-12-23T04:54:00.638784", "MEAN_MOTION": 15.45793948, "ECCENTRICITY": 0.00163136, "INCLINATION": 82.563, "RA_OF_ASC_NODE": 47.7829, "ARG_OF_PERICENTER": 169.8241, "MEAN_ANOMALY": 190.3342, "EPHEMERIS_TYPE": 0, "CLASSIFICATION_TYPE": "U", "NORAD_CAT_ID": 50032, "ELEMENT_SET_NO": 999, "REV_AT_EPOCH": 22765, "BSTAR": 0.00010744328, "MEAN_MOTION_DOT": 5.269e-05, "MEAN_MOTION_DDOT": 0}, "tle": {"line1": "1 50032U 82092RU  25357.20417406  .00005269  00000+0  10744-3 0  9997", "line2": "2 50032  82.5630  47.7829 0016313 169.8241 190.3342 15.45793948227657"}}, "geometry": {"type": "Point", "coordinates": [-164.6487439628311, 75.8802478006412]}}, {"type": "Feature", "properties": {"norad_id": 50058, "name": "COSMOS 1408 DEB", "group": "cosmos-1408-debris", "lat": 1.9444679244709444, "lon": 57.46512647828766, "alt_km": 370.9049058731871, "timestamp": "2025-12-24T07:45:06.470150+00:00", "meta": {"OBJECT_NAME": "COSMOS 1408 DEB", "OBJECT_ID": "1982-092SW", "EPOCH": "2025-12-23T04:07:00.859872", "MEAN_MOTION": 15.64713, "ECCENTRICITY": 0.00159845, "INCLINATION": 82.6118, "RA_OF_ASC_NODE": 58.4192, "ARG_OF_PERICENTER": 63.7743, "MEAN_ANOMALY": 296.5157, "EPHEMERIS_TYPE": 0, "CLASSIFICATION_TYPE": "U", "NORAD_CAT_ID": 50058, "ELEMENT_SET_NO": 999, "REV_AT_EPOCH": 22967, "BSTAR": 0.00034025417, "MEAN_MOTION_DOT": 0.00033308, "MEAN_MOTION_DDOT": 0}, "tle": {"line1": "1 50058U 82092SW  25357.17153773  .00033308  00000+0  34025-3 0  9998", "line2": "2 50058  82.6118  58.4192 0015984  63.7743 296.5157 15.64713000229670"}}, "geometry": {"type": "Point", "coordinates": [57.46512647828766, 1.9444679244709444]}}, {"type": "Feature", "properties": {"norad_id": 50404, "name": "COSMOS 1408 DEB", "group": "cosmos-1408-debris", "lat": -21.65771737173396, "lon": 26.27832747217749, "alt_km": 438.8230101641393, "timestamp": "2025-12-24T07:45:06.470163+00:00", "meta": {"OBJECT_NAME": "COSMOS 1408 DEB", "OBJECT_ID": "1982-092ADS", "EPOCH": "2025-12-23T00:45:48.911904", "MEAN_MOTION": 15.15350794, "ECCENTRICITY": 0.01677821, "INCLINATION": 82.2023, "RA_OF_ASC_NODE": 204.4845, "ARG_OF_PERICENTER": 163.5527, "MEAN_ANOMALY": 197.1246, "EPHEMERIS_TYPE": 0, "CLASSIFICATION_TYPE": "U", "NORAD_CAT_ID": 50404, "ELEMENT_SET_NO": 999, "REV_AT_EPOCH": 21349, "BSTAR": 0.0032418287, "MEAN_MOTION_DOT": 0.00088331, "MEAN_MOTION_DDOT": 0}, "tle": {"line1": "1 50404U 82092ADS 25357.03181611  .00088331  00000+0  32418-2 0  9999", "line2": "2 50404  82.2023 204.4845 0167782 163.5527 197.1246 15.15350794213498"}}, "geometry": {"type": "Point", "coordinates": [26.27832747217749, -21.65771737173396]}}, {"type": "Feature", "properties": {"norad_id": 50621, "name": "COSMOS 1408 DEB", "group": "cosmos-1408-debris", "lat": 65.34127324705412, "lon": 78.63524603284166, "alt_km": 375.16364427654844, "timestamp": "2025-12-24T07:45:06.470175+00:00", "meta": {"OBJECT_NAME": "COSMOS 1408 DEB", "OBJECT_ID": "1982-092ALR", "EPOCH": "2025-12-23T14:30:12.364992", "MEAN_MOTION": 15.57201045, "ECCENTRICITY": 0.00290955, "INCLINATION": 82.5688, "RA_OF_ASC_NODE": 62.8659, "ARG_OF_PERICENTER": 113.3373, "MEAN_ANOMALY": 247.0948, "EPHEMERIS_TYPE": 0, "CLASSIFICATION_TYPE": "U", "NORAD_CAT_ID": 50621, "ELEMENT_SET_NO": 999, "REV_AT_EPOCH": 22419, "BSTAR": 0.00035622213, "MEAN_MOTION_DOT": 0.00026487, "MEAN_MOTION_DDOT": 0}, "tle": {"line1": "1 50621U 82092ALR 25357.60430978  .00026487  00000+0  35622-3 0  9991", "line2": "2 50621  82.5688  62.8659 0029095 113.3373 247.0948 15.57201045224197"}}, "geometry": {"type": "Point", "coordinates": [78.63524603284166, 65.34127324705412]}}]}